0 SL-12 R/B(2)
1 25743U 99027D   13280.12733214 -.00000139  00000-0  00000+0 0  9763
2 25743 017.7034 014.8981 5188330 336.6855 018.5775 01.87833010 98786
0 SL-12 R/B(2)
1 25743U 99027D   13282.78465834 -.00000169  00000-0  00000+0 0  9771
2 25743 017.7055 014.6214 5188291 337.2061 015.4311 01.87833194 98839
0 SL-12 R/B(2)
1 25743U 99027D   13288.09480693 -.00000180  00000-0  00000+0 0  9785
2 25743 017.7114 014.0566 5189274 338.2562 006.1047 01.87833214 98935
0 SL-12 R/B(2)
1 25743U 99027D   13288.61517869 -.00000174  00000-0  00000+0 0  9793
2 25743 017.7100 014.0147 5188164 338.3457 357.9682 01.87833656 98938
0 SL-12 R/B(2)
1 25743U 99027D   13291.88585089 -.00000151  00000-0  00000+0 0  9802
2 25743 017.7126 013.6742 5188125 338.9846 049.5722 01.87833586 99007
0 SL-12 R/B(2)
1 25743U 99027D   13294.09671414 -.00000164  00000-0  00000+0 0  9811
2 25743 017.7146 013.4448 5187997 339.4157 104.5438 01.87833440 99046
